ORBCOMM FM24            
1 25478U 98053D   25102.72426041  .00002645  00000+0  91436-3 0  9999
2 25478  45.0067 219.4429 0003524 238.5116 121.5388 14.37903084388029
ORBCOMM FM25            
1 25479U 98053E   25102.69446068  .00002688  00000+0  92901-3 0  9992
2 25479  45.0062 217.8468 0005492 258.1625 101.8608 14.37878261388315
ORBCOMM FM26            
1 25480U 98053F   25102.66367406  .00002039  00000+0  72900-3 0  9996
2 25480  45.0059 213.9865 0006756 279.5987  80.4097 14.36966861388220
ORBCOMM FM27            
1 25481U 98053G   25102.68338022  .00002865  00000+0  98681-3 0  9992
2 25481  45.0044 218.1254 0002134 226.6403 133.4267 14.37898671388240
ORBCOMM FM28            
1 25482U 98053H   25103.21640750  .00002065  00000+0  72130-3 0  9990
2 25482  45.0034 153.1989 0005535 306.6542  53.3797 14.38114596389173
ORBCOMM FM30            
1 25980U 99065A   25102.86967407  .00002650  00000+0  93032-3 0  9992
2 25980  45.0319  38.8485 0006934  28.4407 331.6819 14.37126412325058
ORBCOMM FM31            
1 25981U 99065B   25102.90991394  .00002472  00000+0  87220-3 0  9994
2 25981  45.0236  32.1660 0003893  44.9894 315.1269 14.37078167324613
ORBCOMM FM32            
1 25982U 99065C   25102.91275614  .00002338  00000+0  84358-3 0  9996
2 25982  45.0157  48.2885 0005852  46.1681 313.9649 14.36111055325216
